{"type": "FeatureCollection", "features": [ {"type": "Feature", "properties": {"norad_id": 43010, "name": "FENGYUN 3D", "group": "weather", "lat": 39.80298800577511, "lon": 146.87848065610777, "alt_km": 822.4770990696315, "timestamp": "2025-12-18T21:31:50.623201+00:00", "meta": {"OBJECT_NAME": "FENGYUN 3D", "OBJECT_ID": "2017-072A", "EPOCH": "2025-12-18T07:20:38.700672", "MEAN_MOTION": 14.19686496, "ECCENTRICITY": 0.00012161, "INCLINATION": 98.9889, "RA_OF_ASC_NODE": 318.6996, "ARG_OF_PERICENTER": 165.1389, "MEAN_ANOMALY": 194.9822, "EPHEMERIS_TYPE": 0, "CLASSIFICATION_TYPE": "U", "NORAD_CAT_ID": 43010, "ELEMENT_SET_NO": 999, "REV_AT_EPOCH": 41932, "BSTAR": 0.00010186697, "MEAN_MOTION_DOT": 1.69e-06, "MEAN_MOTION_DDOT": 0}, "tle": {"line1": "1 43010U 17072A   25352.30600348  .00000169  00000+0  10187-3 0  9991", "line2": "2 43010  98.9889 318.6996 0001216 165.1389 194.9822 14.19686496419324"}}, "geometry": {"type": "Point", "coordinates": [146.87848065610777, 39.80298800577511]}}, {"type": "Feature", "properties": {"norad_id": 43013, "name": "NOAA 20 (JPSS-1)", "group": "weather", "lat": -69.88903001781249, "lon": -45.967554274565245, "alt_km": 835.5240605393019, "timestamp": "2025-12-18T21:31:50.623212+00:00", "meta": {"OBJECT_NAME": "NOAA 20 (JPSS-1)", "OBJECT_ID": "2017-073A", "EPOCH": "2025-12-18T06:38:37.594464", "MEAN_MOTION": 14.19527208, "ECCENTRICITY": 0.00021378, "INCLINATION": 98.7606, "RA_OF_ASC_NODE": 288.5132, "ARG_OF_PERICENTER": 79.1798, "MEAN_ANOMALY": 280.9619, "EPHEMERIS_TYPE": 0, "CLASSIFICATION_TYPE": "U", "NORAD_CAT_ID": 43013, "ELEMENT_SET_NO": 999, "REV_AT_EPOCH": 41880, "BSTAR": 4.9798459e-05, "MEAN_MOTION_DOT": 6.1e-07, "MEAN_MOTION_DDOT": 0}, "tle": {"line1": "1 43013U 17073A   25352.27682401  .00000061  00000+0  49798-4 0  9993", "line2": "2 43013  98.7606 288.5132 0002137  79.1798 280.9619 14.19527208418807"}}, "geometry": {"type": "Point", "coordinates": [-45.967554274565245, -69.88903001781249]}}, {"type": "Feature", "properties": {"norad_id": 43226, "name": "GOES 17", "group": "weather", "lat": -0.38611190990145494, "lon": -38.774957781690716, "alt_km": 35776.50267679273, "timestamp": "2025-12-18T21:31:50.623224+00:00", "meta": {"OBJECT_NAME": "GOES 17", "OBJECT_ID": "2018-022A", "EPOCH": "2025-12-18T06:06:32.757984", "MEAN_MOTION": 1.00271067, "ECCENTRICITY": 0.00030896, "INCLINATION": 0.472, "RA_OF_ASC_NODE": 89.1354, "ARG_OF_PERICENTER": 191.192, "MEAN_ANOMALY": 168.9295, "EPHEMERIS_TYPE": 0, "CLASSIFICATION_TYPE": "U", "NORAD_CAT_ID": 43226, "ELEMENT_SET_NO": 999, "REV_AT_EPOCH": 2861, "BSTAR": 0, "MEAN_MOTION_DOT": -1.58e-06, "MEAN_MOTION_DDOT": 0}, "tle": {"line1": "1 43226U 18022A   25352.25454581 -.00000158  00000+0  00000+0 0  9994", "line2": "2 43226   0.4720  89.1354 0003089 191.1920 168.9295  1.00271067 28616"}}, "geometry": {"type": "Point", "coordinates": [-38.774957781690716, -0.38611190990145494]}}, {"type": "Feature", "properties": {"norad_id": 43491, "name": "FENGYUN 2H", "group": "weather", "lat": 1.9486319886280268, "lon": 130.00640969527316, "alt_km": 35790.744168061115, "timestamp": "2025-12-18T21:31:50.623237+00:00", "meta": {"OBJECT_NAME": "FENGYUN 2H", "OBJECT_ID": "2018-050A", "EPOCH": "2025-12-18T01:41:17.020896", "MEAN_MOTION": 1.00271351, "ECCENTRICITY": 0.00024215, "INCLINATION": 2.5643, "RA_OF_ASC_NODE": 81.2737, "ARG_OF_PERICENTER": 166.3209, "MEAN_ANOMALY": 304.019, "EPHEMERIS_TYPE": 0, "CLASSIFICATION_TYPE": "U", "NORAD_CAT_ID": 43491, "ELEMENT_SET_NO": 999, "REV_AT_EPOCH": 2762, "BSTAR": 0, "MEAN_MOTION_DOT": -1.07e-06, "MEAN_MOTION_DDOT": 0}, "tle": {"line1": "1 43491U 18050A   25352.07033589 -.00000107  00000+0  00000+0 0  9994", "line2": "2 43491   2.5643  81.2737 0002421 166.3209 304.0190  1.00271351 27621"}}, "geometry": {"type": "Point", "coordinates": [130.00640969527316, 1.9486319886280268]}}, {"type": "Feature", "properties": {"norad_id": 43689, "name": "METOP-C", "group": "weather", "lat": 65.84892572486814, "lon": -109.4791200192839, "alt_km": 813.8189017306149, "timestamp": "2025-12-18T21:31:50.623248+00:00", "meta": {"OBJECT_NAME": "METOP-C", "OBJECT_ID": "2018-087A", "EPOCH": "2025-12-18T05:47:56.896800", "MEAN_MOTION": 14.21486501, "ECCENTRICITY": 9.817e-05, "INCLINATION": 98.6923, "RA_OF_ASC_NODE": 49.9269, "ARG_OF_PERICENTER": 29.173, "MEAN_ANOMALY": 330.9502, "EPHEMERIS_TYPE": 0, "CLASSIFICATION_TYPE": "U", "NORAD_CAT_ID": 43689, "ELEMENT_SET_NO": 999, "REV_AT_EPOCH": 36912, "BSTAR": 7.546804e-05, "MEAN_MOTION_DOT": 1.21e-06, "MEAN_MOTION_DDOT": 0}, "tle": {"line1": "1 43689U 18087A   25352.24163075  .00000121  00000+0  75468-4 0  9996", "line2": "2 43689  98.6923  49.9269 0000981  29.1730 330.9502 14.21486501369123"}}, "geometry": {"type": "Point", "coordinates": [-109.4791200192839, 65.84892572486814]}}, {"type": "Feature", "properties": {"norad_id": 43823, "name": "GEO-KOMPSAT-2A", "group": "weather", "lat": 0.032358370398476125, "lon": 178.98057185996967, "alt_km": 35785.93572907099, "timestamp": "2025-12-18T21:31:50.623260+00:00", "meta": {"OBJECT_NAME": "GEO-KOMPSAT-2A", "OBJECT_ID": "2018-100A", "EPOCH": "2025-12-16T07:07:06.206304", "MEAN_MOTION": 1.00271835, "ECCENTRICITY": 4.993e-05, "INCLINATION": 0.0508, "RA_OF_ASC_NODE": 132.3973, "ARG_OF_PERICENTER": 330.4458, "MEAN_ANOMALY": 217.3998, "EPHEMERIS_TYPE": 0, "CLASSIFICATION_TYPE": "U", "NORAD_CAT_ID": 43823, "ELEMENT_SET_NO": 999, "REV_AT_EPOCH": 2579, "BSTAR": 0, "MEAN_MOTION_DOT": -3.2e-06, "MEAN_MOTION_DDOT": 0}, "tle": {"line1": "1 43823U 18100A   25350.29659961 -.00000320  00000+0  00000+0 0  9996", "line2": "2 43823   0.0508 132.3973 0000499 330.4458 217.3998  1.00271835 25791"}}, "geometry": {"type": "Point", "coordinates": [178.98057185996967, 0.032358370398476125]}}, {"type": "Feature", "properties": {"norad_id": 44387, "name": "METEOR-M2 2", "group": "weather", "lat": -67.23308143969936, "lon": 130.78635989046498, "alt_km": 818.5161543600934, "timestamp": "2025-12-18T21:31:50.623324+00:00", "meta": {"OBJECT_NAME": "METEOR-M2 2", "OBJECT_ID": "2019-038A", "EPOCH": "2025-12-18T06:52:39.781056", "MEAN_MOTION": 14.24294222, "ECCENTRICITY": 0.00014593, "INCLINATION": 98.8968, "RA_OF_ASC_NODE": 332.0835, "ARG_OF_PERICENTER": 136.1632, "MEAN_ANOMALY": 223.9662, "EPHEMERIS_TYPE": 0, "CLASSIFICATION_TYPE": "U", "NORAD_CAT_ID": 44387, "ELEMENT_SET_NO": 999, "REV_AT_EPOCH": 33554, "BSTAR": 9.9457918e-05, "MEAN_MOTION_DOT": 1.84e-06, "MEAN_MOTION_DDOT": 0}, "tle": {"line1": "1 44387U 19038A   25352.28657154  .00000184  00000+0  99458-4 0  9993", "line2": "2 44387  98.8968 332.0835 0001459 136.1632 223.9662 14.24294222335543"}}, "geometry": {"type": "Point", "coordinates": [130.78635989046498, -67.23308143969936]}}, {"type": "Feature", "properties": {"norad_id": 47719, "name": "ARKTIKA-M 1", "group": "weather", "lat": 56.838452826149464, "lon": -147.4697614778124, "alt_km": 32530.913577496944, "timestamp": "2025-12-18T21:31:50.623351+00:00", "meta": {"OBJECT_NAME": "ARKTIKA-M 1", "OBJECT_ID": "2021-016A", "EPOCH": "2025-12-18T01:24:39.137184", "MEAN_MOTION": 2.00630666, "ECCENTRICITY": 0.72069203, "INCLINATION": 63.1752, "RA_OF_ASC_NODE": 83.2669, "ARG_OF_PERICENTER": 269.1449, "MEAN_ANOMALY": 15.5709, "EPHEMERIS_TYPE": 0, "CLASSIFICATION_TYPE": "U", "NORAD_CAT_ID": 47719, "ELEMENT_SET_NO": 999, "REV_AT_EPOCH": 3515, "BSTAR": 0, "MEAN_MOTION_DOT": -1.26e-06, "MEAN_MOTION_DDOT": 0}, "tle": {"line1": "1 47719U 21016A   25352.05878631 -.00000126  00000+0  00000+0 0  9991", "line2": "2 47719  63.1752  83.2669 7206920 269.1449  15.5709  2.00630666 35159"}}, "geometry": {"type": "Point", "coordinates": [-147.4697614778124, 56.838452826149464]}}, {"type": "Feature", "properties": {"norad_id": 49008, "name": "FENGYUN 3E", "group": "weather", "lat": 67.83302223175397, "lon": -164.4510136437698, "alt_km": 819.3274335228543, "timestamp": "2025-12-18T21:31:50.623369+00:00", "meta": {"OBJECT_NAME": "FENGYUN 3E", "OBJECT_ID": "2021-062A", "EPOCH": "2025-12-18T07:28:57.533664", "MEAN_MOTION": 14.19879711, "ECCENTRICITY": 6.397e-05, "INCLINATION": 98.7472, "RA_OF_ASC_NODE": 352.7672, "ARG_OF_PERICENTER": 227.7686, "MEAN_ANOMALY": 132.3436, "EPHEMERIS_TYPE": 0, "CLASSIFICATION_TYPE": "U", "NORAD_CAT_ID": 49008, "ELEMENT_SET_NO": 999, "REV_AT_EPOCH": 23091, "BSTAR": -0.00012759408, "MEAN_MOTION_DOT": -3.15e-06, "MEAN_MOTION_DDOT": 0}, "tle": {"line1": "1 49008U 21062A   25352.31177701 -.00000315  00000+0 -12759-3 0  9993", "line2": "2 49008  98.7472 352.7672 0000639 227.7686 132.3436 14.19879711230913"}}, "geometry": {"type": "Point", "coordinates": [-164.4510136437698, 67.83302223175397]}}, {"type": "Feature", "properties": {"norad_id": 51850, "name": "GOES 18", "group": "weather", "lat": 0.006336168089923462, "lon": -86.29751305961935, "alt_km": 35784.817225283594, "timestamp": "2025-12-18T21:31:50.623387+00:00", "meta": {"OBJECT_NAME": "GOES 18", "OBJECT_ID": "2022-021A", "EPOCH": "2025-12-18T05:40:18.417792", "MEAN_MOTION": 1.00272451, "ECCENTRICITY": 4.74e-05, "INCLINATION": 0.0207, "RA_OF_ASC_NODE": 170.9538, "ARG_OF_PERICENTER": 162.3851, "MEAN_ANOMALY": 61.8421, "EPHEMERIS_TYPE": 0, "CLASSIFICATION_TYPE": "U", "NORAD_CAT_ID": 51850, "ELEMENT_SET_NO": 999, "REV_AT_EPOCH": 477, "BSTAR": 0, "MEAN_MOTION_DOT": 1.22e-06, "MEAN_MOTION_DDOT": 0}, "tle": {"line1": "1 51850U 22021A   25352.23632428  .00000122  00000+0  00000+0 0  9996", "line2": "2 51850   0.0207 170.9538 0000474 162.3851  61.8421  1.00272451  4776"}}, "geometry": {"type": "Point", "coordinates": [-86.29751305961935, 0.006336168089923462]}}]}